{
    "links": {
        "self": "http://www.neowsapp.com/rest/v1/neo/54016742?api_key=iIulBulltgU6a56xZRHN4H3l9WmuAYTsLGpBGhQ2"
    },
    "id": "54016742",
    "neo_reference_id": "54016742",
    "name": "(2020 HY5)",
    "designation": "2020 HY5",
    "nasa_jpl_url": "http://ssd.jpl.nasa.gov/sbdb.cgi?sstr=54016742",
    "absolute_magnitude_h": 25.644,
    "estimated_diameter": {
        "kilometers": {
            "estimated_diameter_min": 0.0197585457,
            "estimated_diameter_max": 0.0441814514
        },
        "meters": {
            "estimated_diameter_min": 19.758545737,
            "estimated_diameter_max": 44.1814514045
        },
        "miles": {
            "estimated_diameter_min": 0.0122773873,
            "estimated_diameter_max": 0.0274530726
        },
        "feet": {
            "estimated_diameter_min": 64.8246271959,
            "estimated_diameter_max": 144.9522730261
        }
    },
    "is_potentially_hazardous_asteroid": false,
    "close_approach_data": [
        {
            "close_approach_date": "2019-04-14",
            "close_approach_date_full": "2019-Apr-14 09:46",
            "epoch_date_close_approach": 1555235160000,
            "relative_velocity": {
                "kilometers_per_second": "30.2291051468",
                "kilometers_per_hour": "108824.7785283976",
                "miles_per_hour": "67619.4853028257"
            },
            "miss_distance": {
                "astronomical": "0.3309478636",
                "lunar": "128.7387189404",
                "kilometers": "49509095.475610532",
                "miles": "30763525.4049160616"
            },
            "orbiting_body": "Earth"
        },
        {
            "close_approach_date": "2020-04-26",
            "close_approach_date_full": "2020-Apr-26 04:03",
            "epoch_date_close_approach": 1587873780000,
            "relative_velocity": {
                "kilometers_per_second": "20.8143092883",
                "kilometers_per_hour": "74931.5134379686",
                "miles_per_hour": "46559.5284470533"
            },
            "miss_distance": {
                "astronomical": "0.0418304408",
                "lunar": "16.2720414712",
                "kilometers": "6257744.844841096",
                "miles": "3888382.3398992848"
            },
            "orbiting_body": "Earth"
        },
        {
            "close_approach_date": "2021-04-25",
            "close_approach_date_full": "2021-Apr-25 16:16",
            "epoch_date_close_approach": 1619367360000,
            "relative_velocity": {
                "kilometers_per_second": "15.317574179",
                "kilometers_per_hour": "55143.2670444821",
                "miles_per_hour": "34263.8816810561"
            },
            "miss_distance": {
                "astronomical": "0.3503547887",
                "lunar": "136.2880128043",
                "kilometers": "52412330.133820069",
                "miles": "32567511.7695681922"
            },
            "orbiting_body": "Earth"
        }
    ],
    "orbital_data": {
        "orbit_id": "2",
        "orbit_determination_date": "2020-04-26 06:41:58",
        "first_observation_date": "2020-04-23",
        "last_observation_date": "2020-04-26",
        "data_arc_in_days": 3,
        "observations_used": 33,
        "orbit_uncertainty": "8",
        "minimum_orbit_intersection": ".0390301",
        "jupiter_tisserand_invariant": "5.678",
        "epoch_osculation": "2458963.5",
        "eccentricity": ".5483609619816473",
        "semi_major_axis": "1.039348923055972",
        "inclination": "25.97824698153627",
        "ascending_node_longitude": "211.8632456898104",
        "orbital_period": "387.0263038879779",
        "perihelion_distance": ".4694105477744099",
        "perihelion_argument": "126.4715919379537",
        "aphelion_distance": "1.609287298337533",
        "perihelion_time": "2459027.851815674939",
        "mean_anomaly": "300.1419143602099",
        "mean_motion": ".9301693357364142",
        "equinox": "J2000",
        "orbit_class": {
            "orbit_class_type": "APO",
            "orbit_class_description": "Near-Earth asteroid orbits which cross the Earth’s orbit similar to that of 1862 Apollo",
            "orbit_class_range": "a (semi-major axis) > 1.0 AU; q (perihelion) < 1.017 AU"
        }
    },
    "is_sentry_object": false
}